NORAD_CAT_ID,OBJECT_NAME,OBJECT_TYPE,EPOCH,MEAN_MOTION,ECCENTRICITY,INCLINATION,RA_OF_ASC_NODE,ARG_OF_PERICENTER,MEAN_ANOMALY,BSTAR,MEAN_MOTION_DOT,MEAN_MOTION_DDOT,TLE_LINE0,TLE_LINE1,TLE_LINE2,SEMIMAJOR_AXIS,PERIOD,APOGEE,PERIGEE,DECAYED
52499.0,STARLINK-3894,PAYLOAD,2024-02-14 03:21:36,15.08830372,0.0001615,53.2182,196.4238,79.8864,280.231,2.6702e-05,1.37e-06,0.0,0 STARLINK-3894,1 52499U 22049BA  24045.14000055  .00000137  00000-0  26702-4 0  9998,2 52499  53.2182 196.4238 0001615  79.8864 280.2310 15.08830372 98640,6917.91,95.438,540.892,538.658,0.0
52499.0,STARLINK-3894,PAYLOAD,2024-02-14 14:29:18,15.08833126,0.0001601,53.2177,194.3451,79.4938,280.6234,-1.8386e-05,-5.81e-06,0.0,0 STARLINK-3894,1 52499U 22049BA  24045.60368248 -.00000581  00000-0 -18386-4 0  9994,2 52499  53.2177 194.3451 0001601  79.4938 280.6234 15.08833126 98550,6917.901,95.438,540.874,538.659,0.0
52499.0,STARLINK-3894,PAYLOAD,2024-02-14 16:04:41,15.0883453,0.0001103,53.2151,194.0464,85.4042,274.7076,-5.2852e-05,-1.129e-05,0.0,0 STARLINK-3894,1 52499U 22049BA  24045.66992135 -.00001129  00000-0 -52852-4 0  9993,2 52499  53.2151 194.0464 0001103  85.4042 274.7076 15.08834530 98562,6917.897,95.438,540.525,538.999,0.0
52499.0,STARLINK-3894,PAYLOAD,2024-02-15 03:12:22,15.08838052,0.0001195,53.2153,191.9638,103.231,256.8815,9.0398e-05,1.151e-05,0.0,0 STARLINK-3894,1 52499U 22049BA  24046.13359597  .00001151  00000-0  90398-4 0  9995,2 52499  53.2153 191.9638 0001195 103.2310 256.8815 15.08838052 98791,6917.886,95.438,540.578,538.925,0.0
52499.0,STARLINK-3894,PAYLOAD,2024-02-15 14:20:05,15.0883461,0.0001321,53.2146,189.8819,83.2322,276.882,9.5128e-05,1.226e-05,0.0,0 STARLINK-3894,1 52499U 22049BA  24046.59728052  .00001226  00000-0  95128-4 0  9990,2 52499  53.2146 189.8819 0001321  83.2322 276.8820 15.08834610 98706,6917.897,95.438,540.676,538.848,0.0
52499.0,STARLINK-3894,PAYLOAD,2024-02-15 15:55:28,15.08841348,0.000136,53.2176,189.5851,87.55,272.5647,2.0449e-05,3.8e-07,0.0,0 STARLINK-3894,1 52499U 22049BA  24046.66351944  .00000038  00000-0  20449-4 0  9994,2 52499  53.2176 189.5851 0001360  87.5500 272.5647 15.08841348 98717,6917.876,95.437,540.682,538.8,0.0
52499.0,STARLINK-3894,PAYLOAD,2024-02-16 12:35:27,15.08851042,0.0001381,53.2166,185.7191,78.1795,281.9352,0.00029406,4.397e-05,0.0,0 STARLINK-3894,1 52499U 22049BA  24047.52462703  .00004397  00000-0  29406-3 0  9999,2 52499  53.2166 185.7191 0001381  78.1795 281.9352 15.08851042 99008,6917.847,95.437,540.667,538.756,0.0
52499.0,STARLINK-3894,PAYLOAD,2024-02-16 14:10:51,15.08855644,0.0001409,53.2158,185.4217,77.4168,282.6982,0.00040848,6.222e-05,0.0,0 STARLINK-3894,1 52499U 22049BA  24047.59087114  .00006222  00000-0  40848-3 0  9997,2 52499  53.2158 185.4217 0001409  77.4168 282.6982 15.08855644 98853,6917.833,95.437,540.672,538.723,0.0
52499.0,STARLINK-3894,PAYLOAD,2024-02-16 18:57:00,15.08864793,0.0001429,53.2168,184.5295,80.6235,279.4919,0.00043417,6.633e-05,0.0,0 STARLINK-3894,1 52499U 22049BA  24047.78958526  .00006633  00000-0  43417-3 0  9993,2 52499  53.2168 184.5295 0001429  80.6235 279.4919 15.08864793 98885,6917.805,95.436,540.658,538.681,0.0
52499.0,STARLINK-3894,PAYLOAD,2024-02-17 12:26:15,15.08836518,0.0001405,53.2164,181.2588,70.0581,290.0563,-5.559e-05,-1.172e-05,0.0,0 STARLINK-3894,1 52499U 22049BA  24048.51823877 -.00001172  00000-0 -55590-4 0  9996,2 52499  53.2164 181.2588 0001405  70.0581 290.0563 15.08836518 99150,6917.891,95.438,540.728,538.784,0.0
52499.0,STARLINK-3894,PAYLOAD,2024-02-17 14:01:38,15.08836972,0.0001305,53.2163,180.9615,85.1538,274.9603,-0.00013107,-2.373e-05,0.0,0 STARLINK-3894,1 52499U 22049BA  24048.58447657 -.00002373  00000-0 -13107-3 0  9992,2 52499  53.2163 180.9615 0001305  85.1538 274.9603 15.08836972 99008,6917.89,95.438,540.657,538.852,0.0
52499.0,STARLINK-3894,PAYLOAD,2024-02-17 15:37:01,15.08836486,0.0001284,53.2164,180.6639,85.0479,275.066,-0.00016276,-2.877e-05,0.0,0 STARLINK-3894,1 52499U 22049BA  24048.65071554 -.00002877  00000-0 -16276-3 0  9998,2 52499  53.2164 180.6639 0001284  85.0479 275.0660 15.08836486 99017,6917.891,95.438,540.644,538.868,0.0
52499.0,STARLINK-3894,PAYLOAD,2024-02-18 15:27:49,15.08852622,0.0001443,53.2174,176.206,92.9635,267.1523,0.00095066,0.00014879,0.0,0 STARLINK-3894,1 52499U 22049BA  24049.64431832  .00014879  00000-0  95066-3 0  9994,2 52499  53.2174 176.2060 0001443  92.9635 267.1523 15.08852622 99161,6917.842,95.437,540.705,538.709,0.0
52499.0,STARLINK-3894,PAYLOAD,2024-02-19 12:07:49,15.08844346,0.0001366,53.2162,172.3406,88.7256,271.3893,0.00029282,4.376e-05,0.0,0 STARLINK-3894,1 52499U 22049BA  24050.50543957  .00004376  00000-0  29282-3 0  9991,2 52499  53.2162 172.3406 0001366  88.7256 271.3893 15.08844346 99458,6917.867,95.437,540.677,538.787,0.0
52499.0,STARLINK-3894,PAYLOAD,2024-02-19 15:18:36,15.08841241,0.0001344,53.2162,171.7453,85.4888,274.6258,0.0001595,2.252e-05,0.0,0 STARLINK-3894,1 52499U 22049BA  24050.63792031  .00002252  00000-0  15950-3 0  9992,2 52499  53.2162 171.7453 0001344  85.4888 274.6258 15.08841241 99311,6917.877,95.437,540.671,538.812,0.0
52499.0,STARLINK-3894,PAYLOAD,2024-02-20 11:58:37,15.08839498,0.0001418,53.2162,167.8807,84.4897,275.6257,0.00011106,1.48e-05,0.0,0 STARLINK-3894,1 52499U 22049BA  24051.49904235  .00001480  00000-0  11106-3 0  9999,2 52499  53.2162 167.8807 0001418  84.4897 275.6257 15.08839498 99604,6917.882,95.438,540.728,538.766,0.0
52499.0,STARLINK-3894,PAYLOAD,2024-02-20 13:34:00,15.08843337,0.0001212,53.2155,167.5826,80.8261,279.2868,0.00010528,1.388e-05,0.0,0 STARLINK-3894,1 52499U 22049BA  24051.56527978  .00001388  00000-0  10528-3 0  9996,2 52499  53.2155 167.5826 0001212  80.8261 279.2868 15.08843337 99459,6917.87,95.437,540.574,538.897,0.0
52499.0,STARLINK-3894,PAYLOAD,2024-02-20 15:09:23,15.08848052,0.0001374,53.216,167.2846,82.5949,277.5199,0.00013816,1.912e-05,0.0,0 STARLINK-3894,1 52499U 22049BA  24051.63151834  .00001912  00000-0  13816-3 0  9994,2 52499  53.2160 167.2846 0001374  82.5949 277.5199 15.08848052 99463,6917.856,95.437,540.671,538.77,0.0
52499.0,STARLINK-3894,PAYLOAD,2024-02-21 11:49:24,15.08843451,0.0001836,53.2166,163.4206,61.9562,298.1616,0.00017216,2.453e-05,0.0,0 STARLINK-3894,1 52499U 22049BA  24052.49264226  .00002453  00000-0  17216-3 0  9998,2 52499  53.2166 163.4206 0001836  61.9562 298.1616 15.08843451 99755,6917.87,95.437,541.005,538.465,0.0
52499.0,STARLINK-3894,PAYLOAD,2024-02-21 15:00:10,15.08847754,0.0001464,53.217,162.8258,83.1716,276.9442,0.00021561,3.146e-05,0.0,0 STARLINK-3894,1 52499U 22049BA  24052.62511827  .00003146  00000-0  21561-3 0  9993,2 52499  53.2170 162.8258 0001464  83.1716 276.9442 15.08847754 99610,6917.857,95.437,540.734,538.709,0.0
52499.0,STARLINK-3894,PAYLOAD,2024-02-22 13:15:34,15.08844499,0.000157,53.2165,158.6616,78.8129,281.3039,7.7781e-05,9.5e-06,0.0,0 STARLINK-3894,1 52499U 22049BA  24053.55248075  .00000950  00000-0  77781-4 0  9994,2 52499  53.2165 158.6616 0001570  78.8129 281.3039 15.08844499 99752,6917.867,95.437,540.818,538.646,0.0
52499.0,STARLINK-3894,PAYLOAD,2024-02-23 13:06:21,15.08850715,0.0001514,53.2171,154.2011,83.598,276.5184,0.00014395,2.004e-05,0.0,0 STARLINK-3894,1 52499U 22049BA  24054.54607660  .00002004  00000-0  14395-3 0  9996,2 52499  53.2171 154.2011 0001514  83.5980 276.5184 15.08850715 99908,6917.848,95.437,540.76,538.665,0.0
52499.0,STARLINK-3894,PAYLOAD,2024-02-24 11:21:45,15.08836036,0.0001475,53.216,150.0371,83.1516,276.9644,6.1463e-05,6.9e-06,0.0,0 STARLINK-3894,1 52499U 22049BA  24055.47344667  .00000690  00000-0  61463-4 0  9992,2 52499  53.2160 150.0371 0001475  83.1516 276.9644 15.08836036100207,6917.893,95.438,540.778,538.737,0.0
52499.0,STARLINK-3894,PAYLOAD,2024-02-24 12:57:08,15.08839858,0.0001662,53.2153,149.7359,101.3757,258.7421,6.7888e-05,7.93e-06,0.0,0 STARLINK-3894,1 52499U 22049BA  24055.53968521  .00000793  00000-0  67888-4 0  9991,2 52499  53.2153 149.7359 0001662 101.3757 258.7421 15.08839858100057,6917.881,95.438,540.896,538.596,0.0
52499.0,STARLINK-3894,PAYLOAD,2024-02-25 12:47:55,15.0885683,0.0001347,53.2163,145.28,85.3713,274.7433,0.00030058,4.501e-05,0.0,0 STARLINK-3894,1 52499U 22049BA  24056.53327662  .00004501  00000-0  30058-3 0  9996,2 52499  53.2163 145.2800 0001347  85.3713 274.7433 15.08856830100367,6917.829,95.436,540.626,538.762,0.0
52499.0,STARLINK-3894,PAYLOAD,2024-02-26 04:41:46,15.08846136,0.0001421,53.2171,142.3071,86.7193,273.3962,0.00020942,3.047e-05,0.0,0 STARLINK-3894,1 52499U 22049BA  24057.19568109  .00003047  00000-0  20942-3 0  9997,2 52499  53.2171 142.3071 0001421  86.7193 273.3962 15.08846136100465,6917.862,95.437,540.71,538.744,0.0
52499.0,STARLINK-3894,PAYLOAD,2024-02-26 11:03:19,15.08853939,0.0001455,53.2161,141.1169,89.4445,270.6713,0.00033425,5.038e-05,0.0,0 STARLINK-3894,1 52499U 22049BA  24057.46063799  .00005038  00000-0  33425-3 0  9994,2 52499  53.2161 141.1169 0001455  89.4445 270.6713 15.08853939100346,6917.838,95.437,540.709,538.696,0.0
52499.0,STARLINK-3894,PAYLOAD,2024-02-27 10:54:06,15.08827181,0.0001374,53.2154,136.6567,74.9645,285.1499,-2.5497e-06,-3.28e-06,0.0,0 STARLINK-3894,1 52499U 22049BA  24058.45424747 -.00000328  00000-0 -25497-5 0  9999,2 52499  53.2154 136.6567 0001374  74.9645 285.1499 15.08827181100656,6917.92,95.438,540.735,538.834,0.0
52499.0,STARLINK-3894,PAYLOAD,2024-02-27 12:29:30,15.08823803,0.0001502,53.2154,136.3595,86.3798,273.7365,-0.00024691,-4.214e-05,0.0,0 STARLINK-3894,1 52499U 22049BA  24058.52048839 -.00004214  00000-0 -24691-3 0  9992,2 52499  53.2154 136.3595 0001502  86.3798 273.7365 15.08823803100509,6917.93,95.439,540.834,538.756,0.0
52499.0,STARLINK-3894,PAYLOAD,2024-02-27 22:01:49,15.08833733,0.0001368,53.216,134.5735,84.5024,275.6124,-0.0001095,-2.03e-05,0.0,0 STARLINK-3894,1 52499U 22049BA  24058.91792884 -.00002030  00000-0 -10950-3 0  9998,2 52499  53.2160 134.5735 0001368  84.5024 275.6124 15.08833733100567,6917.9,95.438,540.711,538.818,0.0
